[{"OBJECT_NAME":"STARLINK-3672","OBJECT_ID":"2022-025U","EPOCH":"2026-03-09T06:50:30.117984","MEAN_MOTION":15.06421762,"ECCENTRICITY":0.00016158,"INCLINATION":53.0558,"RA_OF_ASC_NODE":32.701,"ARG_OF_PERICENTER":75.7429,"MEAN_ANOMALY":284.374,"EPHEMERIS_TYPE":0,"CLASSIFICATION_TYPE":"U","NORAD_CAT_ID":51974,"ELEMENT_SET_NO":999,"REV_AT_EPOCH":22085,"BSTAR":0.00017516348,"MEAN_MOTION_DOT":2.33e-5,"MEAN_MOTION_DDOT":0},{"OBJECT_NAME":"YUNYAO-1 47","OBJECT_ID":"2025-059E","EPOCH":"2026-03-09T22:46:15.708288","MEAN_MOTION":15.10508558,"ECCENTRICITY":0.00172664,"INCLINATION":97.6066,"RA_OF_ASC_NODE":250.9227,"ARG_OF_PERICENTER":135.6694,"MEAN_ANOMALY":224.5922,"EPHEMERIS_TYPE":0,"CLASSIFICATION_TYPE":"U","NORAD_CAT_ID":63348,"ELEMENT_SET_NO":999,"REV_AT_EPOCH":5331,"BSTAR":0.00029014568,"MEAN_MOTION_DOT":4.732e-5,"MEAN_MOTION_DDOT":0}]
